[{"OBJECT_NAME":"STARLINK-30231","OBJECT_ID":"2023-113V","EPOCH":"2026-03-09T22:00:01.999584","MEAN_MOTION":15.26763593,"ECCENTRICITY":0.00017784,"INCLINATION":43.0012,"RA_OF_ASC_NODE":14.4315,"ARG_OF_PERICENTER":266.9098,"MEAN_ANOMALY":104.5357,"EPHEMERIS_TYPE":0,"CLASSIFICATION_TYPE":"U","NORAD_CAT_ID":57514,"ELEMENT_SET_NO":999,"REV_AT_EPOCH":577,"BSTAR":0.0008895568,"MEAN_MOTION_DOT":0.00023695,"MEAN_MOTION_DDOT":0},{"OBJECT_NAME":"CZ-6A DEB","OBJECT_ID":"2024-140AAN","EPOCH":"2026-03-09T15:08:07.195776","MEAN_MOTION":15.20547394,"ECCENTRICITY":0.0064261,"INCLINATION":89.3669,"RA_OF_ASC_NODE":306.3092,"ARG_OF_PERICENTER":93.6352,"MEAN_ANOMALY":267.2246,"EPHEMERIS_TYPE":0,"CLASSIFICATION_TYPE":"U","NORAD_CAT_ID":61480,"ELEMENT_SET_NO":999,"REV_AT_EPOCH":8198,"BSTAR":0.0033609,"MEAN_MOTION_DOT":0.00078405,"MEAN_MOTION_DDOT":0}]
